[{"OBJECT_NAME":"OBJECT H","OBJECT_ID":"2023-091H","EPOCH":"2026-03-09T22:34:46.487712","MEAN_MOTION":15.26380881,"ECCENTRICITY":0.00117854,"INCLINATION":97.5166,"RA_OF_ASC_NODE":131.4381,"ARG_OF_PERICENTER":104.1062,"MEAN_ANOMALY":256.1487,"EPHEMERIS_TYPE":0,"CLASSIFICATION_TYPE":"U","NORAD_CAT_ID":57173,"ELEMENT_SET_NO":999,"REV_AT_EPOCH":14915,"BSTAR":0.00056321781,"MEAN_MOTION_DOT":0.00014617,"MEAN_MOTION_DDOT":0},{"OBJECT_NAME":"STARLINK-34144","OBJECT_ID":"2025-099G","EPOCH":"2026-03-09T14:50:33.174528","MEAN_MOTION":15.27629676,"ECCENTRICITY":0.00013648,"INCLINATION":43.003,"RA_OF_ASC_NODE":176.7816,"ARG_OF_PERICENTER":294.1611,"MEAN_ANOMALY":65.9098,"EPHEMERIS_TYPE":0,"CLASSIFICATION_TYPE":"U","NORAD_CAT_ID":63958,"ELEMENT_SET_NO":999,"REV_AT_EPOCH":4732,"BSTAR":0.0015836295,"MEAN_MOTION_DOT":0.0004364,"MEAN_MOTION_DDOT":0}]
